{
  "type": "FeatureCollection",
  "features": [
    {
      "type": "Feature",
      "properties": {
        "norad_id": 41330,
        "name": "COSMOS 2514 (751)",
        "group": "gnss",
        "lat": 48.50574989558318,
        "lon": -9.133182823218153,
        "alt_km": 19153.8000399806,
        "timestamp": "2025-12-16T19:34:24.509548+00:00",
        "meta_object_name": "COSMOS 2514 (751)",
        "meta_object_id": "2016-008A",
        "meta_epoch": "2025-12-14T20:46:48.200160",
        "meta_mean_motion": 2.13102693,
        "meta_eccentricity": 0.00120161,
        "meta_inclination": 65.1326,
        "meta_ra_of_asc_node": 319.3311,
        "meta_arg_of_pericenter": 220.1002,
        "meta_mean_anomaly": 139.8075,
        "meta_ephemeris_type": 0,
        "meta_classification_type": "U",
        "meta_norad_cat_id": 41330,
        "meta_element_set_no": 999,
        "meta_rev_at_epoch": 7669,
        "meta_bstar": 0,
        "meta_mean_motion_dot": -6.7e-07,
        "meta_mean_motion_ddot": 0,
        "tle_line1": "1 41330U 16008A   25348.86583565 -.00000067  00000+0  00000+0 0  9996",
        "tle_line2": "2 41330  65.1326 319.3311 0012016 220.1002 139.8075  2.13102693 76692"
      },
      "geometry": {
        "type": "Point",
        "coordinates": [
          -9.133182823218153,
          48.50574989558318
        ]
      }
    },
    {
      "type": "Feature",
      "properties": {
        "norad_id": 41384,
        "name": "IRNSS-1F",
        "group": "gnss",
        "lat": -3.6828974784891253,
        "lon": 51.98762197492365,
        "alt_km": 35846.8193224173,
        "timestamp": "2025-12-16T19:34:24.509560+00:00",
        "meta_object_name": "IRNSS-1F",
        "meta_object_id": "2016-015A",
        "meta_epoch": "2025-12-15T22:06:08.649216",
        "meta_mean_motion": 1.00274198,
        "meta_eccentricity": 0.00226047,
        "meta_inclination": 4.8888,
        "meta_ra_of_asc_node": 101.2206,
        "meta_arg_of_pericenter": 181.0814,
        "meta_mean_anomaly": 166.4307,
        "meta_ephemeris_type": 0,
        "meta_classification_type": "U",
        "meta_norad_cat_id": 41384,
        "meta_element_set_no": 999,
        "meta_rev_at_epoch": 3582,
        "meta_bstar": 0,
        "meta_mean_motion_dot": 1.79e-06,
        "meta_mean_motion_ddot": 0,
        "tle_line1": "1 41384U 16015A   25349.92093344  .00000179  00000+0  00000+0 0  9995",
        "tle_line2": "2 41384   4.8888 101.2206 0022604 181.0814 166.4307  1.00274198 35824"
      },
      "geometry": {
        "type": "Point",
        "coordinates": [
          51.98762197492365,
          -3.6828974784891253
        ]
      }
    },
    {
      "type": "Feature",
      "properties": {
        "norad_id": 41434,
        "name": "BEIDOU-2 IGSO-6 (C13)",
        "group": "gnss",
        "lat": 55.58288668828078,
        "lon": 97.36171328409655,
        "alt_km": 36012.893273359514,
        "timestamp": "2025-12-16T19:34:24.509571+00:00",
        "meta_object_name": "BEIDOU-2 IGSO-6 (C13)",
        "meta_object_id": "2016-021A",
        "meta_epoch": "2025-12-11T15:29:12.615360",
        "meta_mean_motion": 1.00293077,
        "meta_eccentricity": 0.00608616,
        "meta_inclination": 59.9644,
        "meta_ra_of_asc_node": 39.9082,
        "meta_arg_of_pericenter": 229.9753,
        "meta_mean_anomaly": 135.9177,
        "meta_ephemeris_type": 0,
        "meta_classification_type": "U",
        "meta_norad_cat_id": 41434,
        "meta_element_set_no": 999,
        "meta_rev_at_epoch": 3560,
        "meta_bstar": 0,
        "meta_mean_motion_dot": -1.62e-06,
        "meta_mean_motion_ddot": 0,
        "tle_line1": "1 41434U 16021A   25345.64528490 -.00000162  00000+0  00000+0 0  9991",
        "tle_line2": "2 41434  59.9644  39.9082 0060861 229.9753 135.9177  1.00293077 35600"
      },
      "geometry": {
        "type": "Point",
        "coordinates": [
          97.36171328409655,
          55.58288668828078
        ]
      }
    },
    {
      "type": "Feature",
      "properties": {
        "norad_id": 41469,
        "name": "IRNSS-1G",
        "group": "gnss",
        "lat": 3.463734879304473,
        "lon": 148.66221111351467,
        "alt_km": 35780.70707707232,
        "timestamp": "2025-12-16T19:34:24.509584+00:00",
        "meta_object_name": "IRNSS-1G",
        "meta_object_id": "2016-027A",
        "meta_epoch": "2025-12-15T19:08:21.090912",
        "meta_mean_motion": 1.00278706,
        "meta_eccentricity": 0.00025808,
        "meta_inclination": 4.7414,
        "meta_ra_of_asc_node": 102.0187,
        "meta_arg_of_pericenter": 333.3195,
        "meta_mean_anomaly": 65.8557,
        "meta_ephemeris_type": 0,
        "meta_classification_type": "U",
        "meta_norad_cat_id": 41469,
        "meta_element_set_no": 999,
        "meta_rev_at_epoch": 3534,
        "meta_bstar": 0,
        "meta_mean_motion_dot": -3.14e-06,
        "meta_mean_motion_ddot": 0,
        "tle_line1": "1 41469U 16027A   25349.79746633 -.00000314  00000+0  00000+0 0  9995",
        "tle_line2": "2 41469   4.7414 102.0187 0002580 333.3195  65.8557  1.00278706 35349"
      },
      "geometry": {
        "type": "Point",
        "coordinates": [
          148.66221111351467,
          3.463734879304473
        ]
      }
    },
    {
      "type": "Feature",
      "properties": {
        "norad_id": 41549,
        "name": "GSAT0211 (GALILEO 14)",
        "group": "gnss",
        "lat": -54.94824727912071,
        "lon": 143.8763515248012,
        "alt_km": 23230.79025475404,
        "timestamp": "2025-12-16T19:34:24.509600+00:00",
        "meta_object_name": "GSAT0211 (GALILEO 14)",
        "meta_object_id": "2016-030A",
        "meta_epoch": "2025-12-14T00:32:28.498848",
        "meta_mean_motion": 1.70473201,
        "meta_eccentricity": 0.000407,
        "meta_inclination": 55.1518,
        "meta_ra_of_asc_node": 226.7881,
        "meta_arg_of_pericenter": 16.5595,
        "meta_mean_anomaly": 343.5367,
        "meta_ephemeris_type": 0,
        "meta_classification_type": "U",
        "meta_norad_cat_id": 41549,
        "meta_element_set_no": 999,
        "meta_rev_at_epoch": 5951,
        "meta_bstar": 0,
        "meta_mean_motion_dot": 2.8e-07,
        "meta_mean_motion_ddot": 0,
        "tle_line1": "1 41549U 16030A   25348.02255207  .00000028  00000+0  00000+0 0  9996",
        "tle_line2": "2 41549  55.1518 226.7881 0004070  16.5595 343.5367  1.70473201 59512"
      },
      "geometry": {
        "type": "Point",
        "coordinates": [
          143.8763515248012,
          -54.94824727912071
        ]
      }
    },
    {
      "type": "Feature",
      "properties": {
        "norad_id": 41550,
        "name": "GSAT0210 (GALILEO 13)",
        "group": "gnss",
        "lat": 47.44647599515969,
        "lon": -2.5906331549605763,
        "alt_km": 23217.993539106268,
        "timestamp": "2025-12-16T19:34:24.509639+00:00",
        "meta_object_name": "GSAT0210 (GALILEO 13)",
        "meta_object_id": "2016-030B",
        "meta_epoch": "2025-12-14T06:43:07.791456",
        "meta_mean_motion": 1.70473679,
        "meta_eccentricity": 9.538e-05,
        "meta_inclination": 55.1512,
        "meta_ra_of_asc_node": 226.7791,
        "meta_arg_of_pericenter": 236.3511,
        "meta_mean_anomaly": 123.7237,
        "meta_ephemeris_type": 0,
        "meta_classification_type": "U",
        "meta_norad_cat_id": 41550,
        "meta_element_set_no": 999,
        "meta_rev_at_epoch": 5951,
        "meta_bstar": 0,
        "meta_mean_motion_dot": 3e-07,
        "meta_mean_motion_ddot": 0,
        "tle_line1": "1 41550U 16030B   25348.27995129  .00000030  00000+0  00000+0 0  9992",
        "tle_line2": "2 41550  55.1512 226.7791 0000953 236.3511 123.7237  1.70473679 59517"
      },
      "geometry": {
        "type": "Point",
        "coordinates": [
          -2.5906331549605763,
          47.44647599515969
        ]
      }
    },
    {
      "type": "Feature",
      "properties": {
        "norad_id": 41586,
        "name": "BEIDOU-2 G7 (C03)",
        "group": "gnss",
        "lat": 1.5732372191451416,
        "lon": 129.77478976095443,
        "alt_km": 35774.43564020614,
        "timestamp": "2025-12-16T19:34:24.509653+00:00",
        "meta_object_name": "BEIDOU-2 G7 (C03)",
        "meta_object_id": "2016-037A",
        "meta_epoch": "2025-12-15T22:28:29.009568",
        "meta_mean_motion": 1.00273736,
        "meta_eccentricity": 0.00049698,
        "meta_inclination": 1.7648,
        "meta_ra_of_asc_node": 67.8002,
        "meta_arg_of_pericenter": 3.4477,
        "meta_mean_anomaly": 101.1456,
        "meta_ephemeris_type": 0,
        "meta_classification_type": "U",
        "meta_norad_cat_id": 41586,
        "meta_element_set_no": 999,
        "meta_rev_at_epoch": 505,
        "meta_bstar": 0,
        "meta_mean_motion_dot": -3.32e-06,
        "meta_mean_motion_ddot": 0,
        "tle_line1": "1 41586U 16037A   25349.93644687 -.00000332  00000+0  00000+0 0  9998",
        "tle_line2": "2 41586   1.7648  67.8002 0004969   3.4477 101.1456  1.00273736  5055"
      },
      "geometry": {
        "type": "Point",
        "coordinates": [
          129.77478976095443,
          1.5732372191451416
        ]
      }
    }
  ]
}